1 57371U 23099AV  25333.22159911  .00000419  00000+0  46090-4 0  9998
2 57371  43.0046  61.8494 0001309 276.6984  83.3709 15.02535376131157
